[
    {
        "Altitude(m)": 611967.144808885,
        "Argument of Periapsis(deg)": 0.0,
        "Eccentricity": 0.0,
        "Inclination(deg)": 60.0,
        "Latitude(deg)": 59.14005813992135,
        "Longitude(deg)": -103.90786991507328,
        "Mean Anomaly(deg)": 98.18179999999998,
        "RAAN(deg)": 250.00000000000003,
        "Satellite Name": "Test1 1106",
        "Satellite Number": 1106,
        "Semi-Major Axis(m)": 6980739.136638005,
        "Time(s)": 0
    },
    {
        "Altitude(m)": 611934.3442991595,
        "Argument of Periapsis(deg)": 0.00010418945913296404,
        "Eccentricity": 0.0,
        "Inclination(deg)": 60.0,
        "Latitude(deg)": 58.98641949053322,
        "Longitude(deg)": -102.78462799806948,
        "Mean Anomaly(deg)": 98.80190614546184,
        "RAAN(deg)": 249.99957995086027,
        "Satellite Name": "Test1 1106",
        "Satellite Number": 1106,
        "Semi-Major Axis(m)": 6980739.136638005,
        "Time(s)": 10
    }
]